SL-8 R/B                
1 21088U 91006B   26097.16903763  .00000115  00000+0  10067-3 0  9997
2 21088  82.9429 148.8708 0021306 318.1458  95.8257 13.77499367767993
OKEAN-3                 
1 21397U 91039A   26097.00448605  .00003299  00000+0  23033-3 0  9991
2 21397  82.5155 309.4050 0013137 231.9108 128.0934 15.04986383869298
COSMOS 2151             
1 21422U 91042A   26097.23134415  .00002890  00000+0  22863-3 0  9996
2 21422  82.4967  56.1370 0011482 330.6521  29.4057 15.00243366867476
SL-14 R/B               
1 21423U 91042B   26096.98327308  .00000539  00000+0  65089-4 0  9999
2 21423  82.4961 193.6583 0017947 144.3207 215.9211 14.81860210857268
ERS-1                   
1 21574U 91050A   26097.05761154  .00000390  00000+0  13896-3 0  9998
2 21574  98.7855 116.0027 0033014 117.3556 243.0997 14.39472946819819
ARIANE 40 R/B           
1 21610U 91050F   26097.11043275  .00000367  00000+0  12225-3 0  9992
2 21610  98.1954 148.2720 0002960  13.4582 346.6687 14.42916127823091
INTERCOSMOS 25          
1 21819U 91086A   26096.97030087  .00001493  00000+0  28681-3 0  9996
2 21819  82.6000 292.9082 1486185  55.9964 317.3486 12.12101833500113
SL-8 R/B                
1 21876U 92008B   26097.17681990  .00000040  00000+0  25317-4 0  9993
2 21876  82.9248 246.5824 0035665  56.5077 116.7847 13.75970015713334
SL-8 R/B                
1 21938U 92020B   26097.20758916  .00000003  00000+0 -12455-4 0  9992
2 21938  82.9285 132.5850 0028200 215.7423 213.3264 13.75550682705059
USA 81                  
1 21949U 92023A   26097.30037598  .00000194  00000+0  64461-4 0  9998
2 21949  85.0037 114.9274 0001416  72.5310 287.6037 14.32377957 98882
COSMOS 2219             
1 22219U 92076A   26097.02844671 -.00000122  00000+0 -39283-4 0  9991
2 22219  71.0600 318.8315 0017576 163.6822 196.4871 14.14088252722388
SL-16 R/B               
1 22220U 92076B   26097.22055524  .00000028  00000+0  37981-4 0  9992
2 22220  70.9979 128.2769 0011063  44.2552  25.7349 14.16862656725873
COSMOS 2221             
1 22236U 92080A   26096.92553781  .00002438  00000+0  21285-3 0  9994
2 22236  82.5020 252.0250 0015685  97.5909 262.7095 14.96334840785018
SL-16 R/B               
1 22285U 92093B   26097.00749079 -.00000170  00000+0 -62739-4 0  9992
2 22285  71.0213 304.8212 0006654 266.4189  93.6173 14.15455774717166
COSMOS 2228             
1 22286U 92094A   26097.25709657  .00003052  00000+0  25993-3 0  9999
2 22286  82.5200 209.9594 0017475 201.5876 158.4612 14.97354701780339
SL-16 R/B               
1 22566U 93016B   26097.19213044  .00000320  00000+0  18865-3 0  9993
2 22566  71.0071 155.3218 0012462 277.9084  82.0624 14.15310662706202
COSMOS 2242             
1 22626U 93024A   26097.11802511  .00002479  00000+0  21455-3 0  9990
2 22626  82.5181 239.5171 0015699 205.2117 154.8341 14.96687493784643
