[{"OBJECT_NAME":"SL-8 R/B","OBJECT_ID":"1991-006B","EPOCH":"2026-04-07T04:03:24.851232","MEAN_MOTION":13.77499367,"ECCENTRICITY":0.00213069,"INCLINATION":82.9429,"RA_OF_ASC_NODE":148.8708,"ARG_OF_PERICENTER":318.1458,"MEAN_ANOMALY":95.8257,"EPHEMERIS_TYPE":0,"CLASSIFICATION_TYPE":"U","NORAD_CAT_ID":21088,"ELEMENT_SET_NO":999,"REV_AT_EPOCH":76799,"BSTAR":0.00010067286,"MEAN_MOTION_DOT":1.15e-6,"MEAN_MOTION_DDOT":0},{"OBJECT_NAME":"OKEAN-3","OBJECT_ID":"1991-039A","EPOCH":"2026-04-07T00:06:27.594720","MEAN_MOTION":15.04986383,"ECCENTRICITY":0.00131379,"INCLINATION":82.5155,"RA_OF_ASC_NODE":309.405,"ARG_OF_PERICENTER":231.9108,"MEAN_ANOMALY":128.0934,"EPHEMERIS_TYPE":0,"CLASSIFICATION_TYPE":"U","NORAD_CAT_ID":21397,"ELEMENT_SET_NO":999,"REV_AT_EPOCH":86929,"BSTAR":0.00023032563,"MEAN_MOTION_DOT":3.299e-5,"MEAN_MOTION_DDOT":0},{"OBJECT_NAME":"COSMOS 2151","OBJECT_ID":"1991-042A","EPOCH":"2026-04-07T05:33:08.134560","MEAN_MOTION":15.00243366,"ECCENTRICITY":0.00114824,"INCLINATION":82.4967,"RA_OF_ASC_NODE":56.137,"ARG_OF_PERICENTER":330.6521,"MEAN_ANOMALY":29.4057,"EPHEMERIS_TYPE":0,"CLASSIFICATION_TYPE":"U","NORAD_CAT_ID":21422,"ELEMENT_SET_NO":999,"REV_AT_EPOCH":86747,"BSTAR":0.00022862528,"MEAN_MOTION_DOT":2.89e-5,"MEAN_MOTION_DDOT":0},{"OBJECT_NAME":"SL-14 R/B","OBJECT_ID":"1991-042B","EPOCH":"2026-04-06T23:35:54.794112","MEAN_MOTION":14.8186021,"ECCENTRICITY":0.00179471,"INCLINATION":82.4961,"RA_OF_ASC_NODE":193.6583,"ARG_OF_PERICENTER":144.3207,"MEAN_ANOMALY":215.9211,"EPHEMERIS_TYPE":0,"CLASSIFICATION_TYPE":"U","NORAD_CAT_ID":21423,"ELEMENT_SET_NO":999,"REV_AT_EPOCH":85726,"BSTAR":6.5088559e-5,"MEAN_MOTION_DOT":5.39e-6,"MEAN_MOTION_DDOT":0},{"OBJECT_NAME":"ERS-1","OBJECT_ID":"1991-050A","EPOCH":"2026-04-07T01:22:57.637056","MEAN_MOTION":14.39472946,"ECCENTRICITY":0.00330143,"INCLINATION":98.7855,"RA_OF_ASC_NODE":116.0027,"ARG_OF_PERICENTER":117.3556,"MEAN_ANOMALY":243.0997,"EPHEMERIS_TYPE":0,"CLASSIFICATION_TYPE":"U","NORAD_CAT_ID":21574,"ELEMENT_SET_NO":999,"REV_AT_EPOCH":81981,"BSTAR":0.00013895576,"MEAN_MOTION_DOT":3.9e-6,"MEAN_MOTION_DDOT":0},{"OBJECT_NAME":"ARIANE 40 R/B","OBJECT_ID":"1991-050F","EPOCH":"2026-04-07T02:39:01.389600","MEAN_MOTION":14.42916127,"ECCENTRICITY":0.00029605,"INCLINATION":98.1954,"RA_OF_ASC_NODE":148.272,"ARG_OF_PERICENTER":13.4582,"MEAN_ANOMALY":346.6687,"EPHEMERIS_TYPE":0,"CLASSIFICATION_TYPE":"U","NORAD_CAT_ID":21610,"ELEMENT_SET_NO":999,"REV_AT_EPOCH":82309,"BSTAR":0.00012225278,"MEAN_MOTION_DOT":3.67e-6,"MEAN_MOTION_DDOT":0},{"OBJECT_NAME":"INTERCOSMOS 25","OBJECT_ID":"1991-086A","EPOCH":"2026-04-06T23:17:13.995168","MEAN_MOTION":12.12101833,"ECCENTRICITY":0.1486185,"INCLINATION":82.6,"RA_OF_ASC_NODE":292.9082,"ARG_OF_PERICENTER":55.9964,"MEAN_ANOMALY":317.3486,"EPHEMERIS_TYPE":0,"CLASSIFICATION_TYPE":"U","NORAD_CAT_ID":21819,"ELEMENT_SET_NO":999,"REV_AT_EPOCH":50011,"BSTAR":0.00028681,"MEAN_MOTION_DOT":1.493e-5,"MEAN_MOTION_DDOT":0},{"OBJECT_NAME":"SL-8 R/B","OBJECT_ID":"1992-008B","EPOCH":"2026-04-07T04:14:37.239360","MEAN_MOTION":13.75970015,"ECCENTRICITY":0.00356654,"INCLINATION":82.9248,"RA_OF_ASC_NODE":246.5824,"ARG_OF_PERICENTER":56.5077,"MEAN_ANOMALY":116.7847,"EPHEMERIS_TYPE":0,"CLASSIFICATION_TYPE":"U","NORAD_CAT_ID":21876,"ELEMENT_SET_NO":999,"REV_AT_EPOCH":71333,"BSTAR":2.5317124e-5,"MEAN_MOTION_DOT":4.0e-7,"MEAN_MOTION_DDOT":0},{"OBJECT_NAME":"SL-8 R/B","OBJECT_ID":"1992-020B","EPOCH":"2026-04-07T04:58:55.703424","MEAN_MOTION":13.75550682,"ECCENTRICITY":0.00282005,"INCLINATION":82.9285,"RA_OF_ASC_NODE":132.585,"ARG_OF_PERICENTER":215.7423,"MEAN_ANOMALY":213.3264,"EPHEMERIS_TYPE":0,"CLASSIFICATION_TYPE":"U","NORAD_CAT_ID":21938,"ELEMENT_SET_NO":999,"REV_AT_EPOCH":70505,"BSTAR":-1.2454955e-5,"MEAN_MOTION_DOT":3.0e-8,"MEAN_MOTION_DDOT":0},{"OBJECT_NAME":"USA 81","OBJECT_ID":"1992-023A","EPOCH":"2026-04-07T07:12:32.484672","MEAN_MOTION":14.32377957,"ECCENTRICITY":0.00014161,"INCLINATION":85.0037,"RA_OF_ASC_NODE":114.9274,"ARG_OF_PERICENTER":72.531,"MEAN_ANOMALY":287.6037,"EPHEMERIS_TYPE":0,"CLASSIFICATION_TYPE":"U","NORAD_CAT_ID":21949,"ELEMENT_SET_NO":999,"REV_AT_EPOCH":9888,"BSTAR":6.4461265e-5,"MEAN_MOTION_DOT":1.94e-6,"MEAN_MOTION_DDOT":0},{"OBJECT_NAME":"COSMOS 2219","OBJECT_ID":"1992-076A","EPOCH":"2026-04-07T00:40:57.795744","MEAN_MOTION":14.14088252,"ECCENTRICITY":0.00175765,"INCLINATION":71.06,"RA_OF_ASC_NODE":318.8315,"ARG_OF_PERICENTER":163.6822,"MEAN_ANOMALY":196.4871,"EPHEMERIS_TYPE":0,"CLASSIFICATION_TYPE":"U","NORAD_CAT_ID":22219,"ELEMENT_SET_NO":999,"REV_AT_EPOCH":72238,"BSTAR":-3.9282781e-5,"MEAN_MOTION_DOT":-1.22e-6,"MEAN_MOTION_DDOT":0},{"OBJECT_NAME":"SL-16 R/B","OBJECT_ID":"1992-076B","EPOCH":"2026-04-07T05:17:35.972736","MEAN_MOTION":14.16862656,"ECCENTRICITY":0.00110638,"INCLINATION":70.9979,"RA_OF_ASC_NODE":128.2769,"ARG_OF_PERICENTER":44.2552,"MEAN_ANOMALY":25.7349,"EPHEMERIS_TYPE":0,"CLASSIFICATION_TYPE":"U","NORAD_CAT_ID":22220,"ELEMENT_SET_NO":999,"REV_AT_EPOCH":72587,"BSTAR":3.7980542e-5,"MEAN_MOTION_DOT":2.8e-7,"MEAN_MOTION_DDOT":0},{"OBJECT_NAME":"COSMOS 2221","OBJECT_ID":"1992-080A","EPOCH":"2026-04-06T22:12:46.466784","MEAN_MOTION":14.9633484,"ECCENTRICITY":0.0015685,"INCLINATION":82.502,"RA_OF_ASC_NODE":252.025,"ARG_OF_PERICENTER":97.5909,"MEAN_ANOMALY":262.7095,"EPHEMERIS_TYPE":0,"CLASSIFICATION_TYPE":"U","NORAD_CAT_ID":22236,"ELEMENT_SET_NO":999,"REV_AT_EPOCH":78501,"BSTAR":0.00021285,"MEAN_MOTION_DOT":2.438e-5,"MEAN_MOTION_DDOT":0},{"OBJECT_NAME":"SL-16 R/B","OBJECT_ID":"1992-093B","EPOCH":"2026-04-07T00:10:47.204256","MEAN_MOTION":14.15455774,"ECCENTRICITY":0.00066541,"INCLINATION":71.0213,"RA_OF_ASC_NODE":304.8212,"ARG_OF_PERICENTER":266.4189,"MEAN_ANOMALY":93.6173,"EPHEMERIS_TYPE":0,"CLASSIFICATION_TYPE":"U","NORAD_CAT_ID":22285,"ELEMENT_SET_NO":999,"REV_AT_EPOCH":71716,"BSTAR":-6.2739261e-5,"MEAN_MOTION_DOT":-1.7e-6,"MEAN_MOTION_DDOT":0},{"OBJECT_NAME":"COSMOS 2228","OBJECT_ID":"1992-094A","EPOCH":"2026-04-07T06:10:13.143648","MEAN_MOTION":14.97354701,"ECCENTRICITY":0.00174753,"INCLINATION":82.52,"RA_OF_ASC_NODE":209.9594,"ARG_OF_PERICENTER":201.5876,"MEAN_ANOMALY":158.4612,"EPHEMERIS_TYPE":0,"CLASSIFICATION_TYPE":"U","NORAD_CAT_ID":22286,"ELEMENT_SET_NO":999,"REV_AT_EPOCH":78033,"BSTAR":0.00025993449,"MEAN_MOTION_DOT":3.052e-5,"MEAN_MOTION_DDOT":0},{"OBJECT_NAME":"SL-16 R/B","OBJECT_ID":"1993-016B","EPOCH":"2026-04-07T04:36:40.070016","MEAN_MOTION":14.15310662,"ECCENTRICITY":0.00124626,"INCLINATION":71.0071,"RA_OF_ASC_NODE":155.3218,"ARG_OF_PERICENTER":277.9084,"MEAN_ANOMALY":82.0624,"EPHEMERIS_TYPE":0,"CLASSIFICATION_TYPE":"U","NORAD_CAT_ID":22566,"ELEMENT_SET_NO":999,"REV_AT_EPOCH":70620,"BSTAR":0.00018865271,"MEAN_MOTION_DOT":3.2e-6,"MEAN_MOTION_DDOT":0},{"OBJECT_NAME":"COSMOS 2242","OBJECT_ID":"1993-024A","EPOCH":"2026-04-07T02:49:57.369504","MEAN_MOTION":14.96687493,"ECCENTRICITY":0.00156998,"INCLINATION":82.5181,"RA_OF_ASC_NODE":239.5171,"ARG_OF_PERICENTER":205.2117,"MEAN_ANOMALY":154.8341,"EPHEMERIS_TYPE":0,"CLASSIFICATION_TYPE":"U","NORAD_CAT_ID":22626,"ELEMENT_SET_NO":999,"REV_AT_EPOCH":78464,"BSTAR":0.00021454579,"MEAN_MOTION_DOT":2.479e-5,"MEAN_MOTION_DDOT":0}]
